[{"OBJECT_NAME":"STARLINK-1132","OBJECT_ID":"2020-006A","EPOCH":"2026-03-09T21:59:55.594752","MEAN_MOTION":15.43542258,"ECCENTRICITY":0.00043223,"INCLINATION":53.1566,"RA_OF_ASC_NODE":252.8812,"ARG_OF_PERICENTER":195.3085,"MEAN_ANOMALY":164.7791,"EPHEMERIS_TYPE":0,"CLASSIFICATION_TYPE":"U","NORAD_CAT_ID":45044,"ELEMENT_SET_NO":999,"REV_AT_EPOCH":33696,"BSTAR":0.0010443803,"MEAN_MOTION_DOT":0.00047496,"MEAN_MOTION_DDOT":0},{"OBJECT_NAME":"PARS 1","OBJECT_ID":"2024-039Q","EPOCH":"2026-03-09T22:32:57.959808","MEAN_MOTION":15.43438301,"ECCENTRICITY":0.00120623,"INCLINATION":97.4757,"RA_OF_ASC_NODE":46.9453,"ARG_OF_PERICENTER":109.8181,"MEAN_ANOMALY":250.4368,"EPHEMERIS_TYPE":0,"CLASSIFICATION_TYPE":"U","NORAD_CAT_ID":59065,"ELEMENT_SET_NO":999,"REV_AT_EPOCH":11332,"BSTAR":0.00033707671,"MEAN_MOTION_DOT":0.00015034,"MEAN_MOTION_DDOT":0}]
